{
  "type": "FeatureCollection",
  "features": [
    {
      "type": "Feature",
      "properties": {
        "norad_id": 66842,
        "name": "STARLINK-35769",
        "group": "last-30-days",
        "lat": 4.274704644362506,
        "lon": 174.7133064197589,
        "alt_km": 411.6179907165397,
        "timestamp": "2025-12-21T22:41:40.165840+00:00",
        "meta_object_name": "STARLINK-35769",
        "meta_object_id": "2025-280X",
        "meta_epoch": "2025-12-21T14:00:01.999872",
        "meta_mean_motion": 15.52495315,
        "meta_eccentricity": 0.00031892,
        "meta_inclination": 70.0002,
        "meta_ra_of_asc_node": 174.145,
        "meta_arg_of_pericenter": 266.6042,
        "meta_mean_anomaly": 234.0248,
        "meta_ephemeris_type": 0,
        "meta_classification_type": "U",
        "meta_norad_cat_id": 66842,
        "meta_element_set_no": 999,
        "meta_rev_at_epoch": 431,
        "meta_bstar": 0.00043209812,
        "meta_mean_motion_dot": 0.00026481,
        "meta_mean_motion_ddot": 0,
        "tle_line1": "1 66842U 25280X   25355.58335648  .00026481  00000+0  43210-3 0  9998",
        "tle_line2": "2 66842  70.0002 174.1450 0003189 266.6042 234.0248 15.52495315  4317"
      },
      "geometry": {
        "type": "Point",
        "coordinates": [
          174.7133064197589,
          4.274704644362506
        ]
      }
    },
    {
      "type": "Feature",
      "properties": {
        "norad_id": 66843,
        "name": "STARLINK-35997",
        "group": "last-30-days",
        "lat": 7.874709280336508,
        "lon": 176.03493445965177,
        "alt_km": 411.17244009816204,
        "timestamp": "2025-12-21T22:41:40.165852+00:00",
        "meta_object_name": "STARLINK-35997",
        "meta_object_id": "2025-280Y",
        "meta_epoch": "2025-12-21T14:00:01.999872",
        "meta_mean_motion": 15.52493446,
        "meta_eccentricity": 0.00032807,
        "meta_inclination": 70.0004,
        "meta_ra_of_asc_node": 174.1391,
        "meta_arg_of_pericenter": 268.6841,
        "meta_mean_anomaly": 235.7753,
        "meta_ephemeris_type": 0,
        "meta_classification_type": "U",
        "meta_norad_cat_id": 66843,
        "meta_element_set_no": 999,
        "meta_rev_at_epoch": 431,
        "meta_bstar": 0.0005645006,
        "meta_mean_motion_dot": 0.00034681,
        "meta_mean_motion_ddot": 0,
        "tle_line1": "1 66843U 25280Y   25355.58335648  .00034681  00000+0  56450-3 0  9990",
        "tle_line2": "2 66843  70.0004 174.1391 0003280 268.6841 235.7753 15.52493446  4317"
      },
      "geometry": {
        "type": "Point",
        "coordinates": [
          176.03493445965177,
          7.874709280336508
        ]
      }
    },
    {
      "type": "Feature",
      "properties": {
        "norad_id": 66844,
        "name": "STARLINK-36073",
        "group": "last-30-days",
        "lat": 6.076483535586265,
        "lon": 175.37237011043499,
        "alt_km": 411.3791724164121,
        "timestamp": "2025-12-21T22:41:40.165864+00:00",
        "meta_object_name": "STARLINK-36073",
        "meta_object_id": "2025-280Z",
        "meta_epoch": "2025-12-21T14:00:01.999872",
        "meta_mean_motion": 15.52491525,
        "meta_eccentricity": 0.00032652,
        "meta_inclination": 70.0002,
        "meta_ra_of_asc_node": 174.142,
        "meta_arg_of_pericenter": 268.3052,
        "meta_mean_anomaly": 234.2428,
        "meta_ephemeris_type": 0,
        "meta_classification_type": "U",
        "meta_norad_cat_id": 66844,
        "meta_element_set_no": 999,
        "meta_rev_at_epoch": 431,
        "meta_bstar": 0.00053354915,
        "meta_mean_motion_dot": 0.0003276,
        "meta_mean_motion_ddot": 0,
        "tle_line1": "1 66844U 25280Z   25355.58335648  .00032760  00000+0  53355-3 0  9998",
        "tle_line2": "2 66844  70.0002 174.1420 0003265 268.3052 234.2428 15.52491525  4312"
      },
      "geometry": {
        "type": "Point",
        "coordinates": [
          175.37237011043499,
          6.076483535586265
        ]
      }
    },
    {
      "type": "Feature",
      "properties": {
        "norad_id": 66845,
        "name": "STARLINK-36068",
        "group": "last-30-days",
        "lat": 13.266849398976037,
        "lon": 178.06747648980473,
        "alt_km": 410.6401912561605,
        "timestamp": "2025-12-21T22:41:40.165874+00:00",
        "meta_object_name": "STARLINK-36068",
        "meta_object_id": "2025-280AA",
        "meta_epoch": "2025-12-21T14:00:01.999872",
        "meta_mean_motion": 15.52496903,
        "meta_eccentricity": 0.00033091,
        "meta_inclination": 70.0004,
        "meta_ra_of_asc_node": 174.1328,
        "meta_arg_of_pericenter": 267.5326,
        "meta_mean_anomaly": 242.6748,
        "meta_ephemeris_type": 0,
        "meta_classification_type": "U",
        "meta_norad_cat_id": 66845,
        "meta_element_set_no": 999,
        "meta_rev_at_epoch": 431,
        "meta_bstar": 0.00046445978,
        "meta_mean_motion_dot": 0.00028486,
        "meta_mean_motion_ddot": 0,
        "tle_line1": "1 66845U 25280AA  25355.58335648  .00028486  00000+0  46446-3 0  9992",
        "tle_line2": "2 66845  70.0004 174.1328 0003309 267.5326 242.6748 15.52496903  4319"
      },
      "geometry": {
        "type": "Point",
        "coordinates": [
          178.06747648980473,
          13.266849398976037
        ]
      }
    },
    {
      "type": "Feature",
      "properties": {
        "norad_id": 66846,
        "name": "STARLINK-36055",
        "group": "last-30-days",
        "lat": 9.673012321851509,
        "lon": 176.704578655554,
        "alt_km": 411.08862074386343,
        "timestamp": "2025-12-21T22:41:40.165884+00:00",
        "meta_object_name": "STARLINK-36055",
        "meta_object_id": "2025-280AB",
        "meta_epoch": "2025-12-21T14:00:01.999872",
        "meta_mean_motion": 15.52491869,
        "meta_eccentricity": 0.00032782,
        "meta_inclination": 70.0002,
        "meta_ra_of_asc_node": 174.137,
        "meta_arg_of_pericenter": 266.0524,
        "meta_mean_anomaly": 240.3261,
        "meta_ephemeris_type": 0,
        "meta_classification_type": "U",
        "meta_norad_cat_id": 66846,
        "meta_element_set_no": 999,
        "meta_rev_at_epoch": 431,
        "meta_bstar": 0.00054755969,
        "meta_mean_motion_dot": 0.00033628,
        "meta_mean_motion_ddot": 0,
        "tle_line1": "1 66846U 25280AB  25355.58335648  .00033628  00000+0  54756-3 0  9990",
        "tle_line2": "2 66846  70.0002 174.1370 0003278 266.0524 240.3261 15.52491869  4315"
      },
      "geometry": {
        "type": "Point",
        "coordinates": [
          176.704578655554,
          9.673012321851509
        ]
      }
    },
    {
      "type": "Feature",
      "properties": {
        "norad_id": 66847,
        "name": "STARLINK-36061",
        "group": "last-30-days",
        "lat": 11.468252052449689,
        "lon": 177.38121858997235,
        "alt_km": 410.8363201267184,
        "timestamp": "2025-12-21T22:41:40.165894+00:00",
        "meta_object_name": "STARLINK-36061",
        "meta_object_id": "2025-280AC",
        "meta_epoch": "2025-12-21T14:00:01.999872",
        "meta_mean_motion": 15.52497622,
        "meta_eccentricity": 0.00032693,
        "meta_inclination": 70.0004,
        "meta_ra_of_asc_node": 174.1354,
        "meta_arg_of_pericenter": 267.5004,
        "meta_mean_anomaly": 240.7881,
        "meta_ephemeris_type": 0,
        "meta_classification_type": "U",
        "meta_norad_cat_id": 66847,
        "meta_element_set_no": 999,
        "meta_rev_at_epoch": 426,
        "meta_bstar": 0.00042982306,
        "meta_mean_motion_dot": 0.00026343,
        "meta_mean_motion_ddot": 0,
        "tle_line1": "1 66847U 25280AC  25355.58335648  .00026343  00000+0  42982-3 0  9995",
        "tle_line2": "2 66847  70.0004 174.1354 0003269 267.5004 240.7881 15.52497622  4268"
      },
      "geometry": {
        "type": "Point",
        "coordinates": [
          177.38121858997235,
          11.468252052449689
        ]
      }
    },
    {
      "type": "Feature",
      "properties": {
        "norad_id": 66848,
        "name": "STARLINK-36091",
        "group": "last-30-days",
        "lat": 9.06965610967289,
        "lon": 76.018877920325,
        "alt_km": 361.6960424392573,
        "timestamp": "2025-12-21T22:41:40.165903+00:00",
        "meta_object_name": "STARLINK-36091",
        "meta_object_id": "2025-281A",
        "meta_epoch": "2025-12-21T14:00:01.999872",
        "meta_mean_motion": 15.69980587,
        "meta_eccentricity": 0.00011773,
        "meta_inclination": 43.0003,
        "meta_ra_of_asc_node": 68.3344,
        "meta_arg_of_pericenter": 291.2417,
        "meta_mean_anomaly": 193.2947,
        "meta_ephemeris_type": 0,
        "meta_classification_type": "U",
        "meta_norad_cat_id": 66848,
        "meta_element_set_no": 999,
        "meta_rev_at_epoch": 281,
        "meta_bstar": -0.017333021,
        "meta_mean_motion_dot": -0.01903619,
        "meta_mean_motion_ddot": 0,
        "tle_line1": "1 66848U 25281A   25355.58335648 -.01903619  00000+0 -17333-1 0  9990",
        "tle_line2": "2 66848  43.0003  68.3344 0001177 291.2417 193.2947 15.69980587  2818"
      },
      "geometry": {
        "type": "Point",
        "coordinates": [
          76.018877920325,
          9.06965610967289
        ]
      }
    }
  ]
}